TIANMU-1 08             
1 57400U 23101B   26066.00237819  .00000346  00000+0  14775-4 0  9993
2 57400  97.2717 118.7901 0006380 134.2174 225.9592 15.29204229146020
STARLINK-31261          
1 59084U 24041L   26068.06189244 -.00004585  00000+0 -15712-3 0  9995
2 59084  43.0063 314.4049 0001959 279.6458  80.4173 15.27591407114228
