[{"OBJECT_NAME":"TIANMU-1 08","OBJECT_ID":"2023-101B","EPOCH":"2026-03-07T00:03:25.475616","MEAN_MOTION":15.29204229,"ECCENTRICITY":0.00063808,"INCLINATION":97.2717,"RA_OF_ASC_NODE":118.7901,"ARG_OF_PERICENTER":134.2174,"MEAN_ANOMALY":225.9592,"EPHEMERIS_TYPE":0,"CLASSIFICATION_TYPE":"U","NORAD_CAT_ID":57400,"ELEMENT_SET_NO":999,"REV_AT_EPOCH":14602,"BSTAR":1.4774513e-5,"MEAN_MOTION_DOT":3.46e-6,"MEAN_MOTION_DDOT":0},{"OBJECT_NAME":"STARLINK-31261","OBJECT_ID":"2024-041L","EPOCH":"2026-03-09T01:29:07.506816","MEAN_MOTION":15.27591407,"ECCENTRICITY":0.0001959,"INCLINATION":43.0063,"RA_OF_ASC_NODE":314.4049,"ARG_OF_PERICENTER":279.6458,"MEAN_ANOMALY":80.4173,"EPHEMERIS_TYPE":0,"CLASSIFICATION_TYPE":"U","NORAD_CAT_ID":59084,"ELEMENT_SET_NO":999,"REV_AT_EPOCH":11422,"BSTAR":-0.0001571178,"MEAN_MOTION_DOT":-4.585e-5,"MEAN_MOTION_DDOT":0}]
